NORAD_CAT_ID,OBJECT_NAME,OBJECT_TYPE,EPOCH,MEAN_MOTION,ECCENTRICITY,INCLINATION,RA_OF_ASC_NODE,ARG_OF_PERICENTER,MEAN_ANOMALY,BSTAR,MEAN_MOTION_DOT,MEAN_MOTION_DDOT,TLE_LINE0,TLE_LINE1,TLE_LINE2,SEMIMAJOR_AXIS,PERIOD,APOGEE,PERIGEE,DECAYED
52861.0,STARLINK-4112,PAYLOAD,2022-08-29 22:00:00,15.28804732,0.0001385,53.2173,45.7044,72.0304,140.6537,-0.040681,-0.01058781,0.0,0 STARLINK-4112,1 52861U 22062AH  22241.91667824 -.01058781  00000-0 -40681-1 0  9990,2 52861  53.2173  45.7044 0001385  72.0304 140.6537 15.28804732  1302,6857.521,94.191,480.336,478.436,0.0
52861.0,STARLINK-4112,PAYLOAD,2022-08-30 14:00:01,15.27330034,0.0001284,53.2174,42.6233,69.4799,212.519,-0.0451779999999999,-0.01118092,0.0,0 STARLINK-4112,1 52861U 22062AH  22242.58334491 -.01118092  00000-0 -45178-1 0  9993,2 52861  53.2174  42.6233 0001284  69.4799 212.5190 15.27330034  1307,6861.935,94.282,484.681,482.919,0.0
52861.0,STARLINK-4112,PAYLOAD,2022-08-30 22:00:00,15.26528318,0.000128,53.2173,41.0904,63.2491,252.0683,-0.043745,-0.01061473,0.0,0 STARLINK-4112,1 52861U 22062AH  22242.91667824 -.01061473  00000-0 -43745-1 0  9997,2 52861  53.2173  41.0904 0001280  63.2491 252.0683 15.26528318 12155,6864.337,94.332,487.081,485.323,0.0
52861.0,STARLINK-4112,PAYLOAD,2022-08-31 14:00:01,15.25011615,0.000132,53.2176,38.0223,57.3472,321.8298,-0.046011,-0.01065881,0.0,0 STARLINK-4112,1 52861U 22062AH  22243.58334491 -.01065881  00000-0 -46011-1 0  9998,2 52861  53.2176  38.0223 0001320  57.3472 321.8298 15.25011615  1304,6868.888000000001,94.426,491.659,489.846,0.0
52861.0,STARLINK-4112,PAYLOAD,2022-08-31 20:00:01,15.24440189,0.000129,53.2175,36.8752,70.057,242.126,-0.046653,-0.0106259,0.0,0 STARLINK-4112,1 52861U 22062AH  22243.83334491 -.01062590  00000-0 -46653-1 0  9992,2 52861  53.2175  36.8752 0001290  70.0570 242.1260 15.24440189 12298,6870.604,94.461,493.355,491.583,0.0
52861.0,STARLINK-4112,PAYLOAD,2022-08-31 22:00:00,15.2425024,0.0001276,53.2172,36.4926,60.7888,348.9488,-0.046895,-0.01062063,0.0,0 STARLINK-4112,1 52861U 22062AH  22243.91667824 -.01062063  00000-0 -46895-1 0  9993,2 52861  53.2172  36.4926 0001276  60.7888 348.9488 15.24250240  1300,6871.175,94.473,493.917,492.163,0.0
52861.0,STARLINK-4112,PAYLOAD,2022-09-01 14:00:01,15.22796383,0.0001313,53.2177,33.4333,57.9363,50.2165,-0.053347,-0.01163888,0.0,0 STARLINK-4112,1 52861U 22062AH  22244.58335648 -.01163888  00000-0 -53347-1 0  9990,2 52861  53.2177  33.4333 0001313  57.9363  50.2165 15.22796383  1308,6875.547,94.563,498.315,496.51,0.0
52861.0,STARLINK-4112,PAYLOAD,2022-09-01 22:00:00,15.21971259,0.0001449,53.2172,31.9106,60.7082,75.2361,-0.050156,-0.01061315,0.0,0 STARLINK-4112,1 52861U 22062AH  22244.91667824 -.01061315  00000-0 -50156-1 0  9998,2 52861  53.2172  31.9106 0001449  60.7082  75.2361 15.21971259  1305,6878.031999999997,94.614,500.894,498.901,0.0
52861.0,STARLINK-4112,PAYLOAD,2022-09-02 06:00:00,15.21247827,0.0001651,53.2177,30.3837,48.5114,114.3256,-0.0537179999999999,-0.01122772,0.0,0 STARLINK-4112,1 52861U 22062AH  22245.25001157 -.01122772  00000-0 -53718-1 0  9999,2 52861  53.2177  30.3837 0001651  48.5114 114.3256 15.21247827 12519,6880.2130000000025,94.659,503.214,500.942,0.0
52861.0,STARLINK-4112,PAYLOAD,2022-09-02 14:00:01,15.20451705,0.0001714,53.2175,28.8643,49.8302,139.0224,-0.052434,-0.01060935,0.0,0 STARLINK-4112,1 52861U 22062AH  22245.58334491 -.01060935  00000-0 -52434-1 0  9991,2 52861  53.2175  28.8643 0001714  49.8302 139.0224 15.20451705  1302,6882.614000000001,94.709,505.659,503.299,0.0
52861.0,STARLINK-4112,PAYLOAD,2022-09-02 22:00:01,15.19790432,0.0001597,53.2173,27.3434,52.4655,161.4825,-0.060407,-0.01202696,0.0,0 STARLINK-4112,1 52861U 22062AH  22245.91668981 -.01202696  00000-0 -60407-1 0  9993,2 52861  53.2173  27.3434 0001597  52.4655 161.4825 15.19790432  1309,6884.61,94.75,507.575,505.376,0.0
52861.0,STARLINK-4112,PAYLOAD,2022-09-03 00:00:00,15.1953507,0.0001431999999999,53.2173,26.9634,53.5684,256.4833,-0.0564559999999999,-0.01122134,0.0,0 STARLINK-4112,1 52861U 22062AH  22246.00001157 -.01122134  00000-0 -56456-1 0  9997,2 52861  53.2173  26.9634 0001432  53.5684 256.4833 15.19535070 12624,6885.382,94.766,508.233,506.261,0.0
52861.0,STARLINK-4112,PAYLOAD,2022-09-03 14:00:01,15.18208173,0.0001384,53.2179,24.3074,62.7475,198.6037,-0.058565,-0.01120108,0.0,0 STARLINK-4112,1 52861U 22062AH  22246.58334491 -.01120108  00000-0 -58565-1 0  9992,2 52861  53.2179  24.3074 0001384  62.7475 198.6037 15.18208173 12719,6889.393,94.849,512.211,510.304,0.0
52861.0,STARLINK-4112,PAYLOAD,2022-09-03 22:00:00,15.174165300000002,0.0001404,53.2172,22.7949,60.208,223.5062,-0.0575139999999999,-0.01078353,0.0,0 STARLINK-4112,1 52861U 22062AH  22246.91667824 -.01078353  00000-0 -57514-1 0  9995,2 52861  53.2172  22.7949 0001404  60.2080 223.5062 15.17416530  1309,6891.7890000000025,94.898,514.622,512.686,0.0
52861.0,STARLINK-4112,PAYLOAD,2022-09-04 06:00:00,15.16653094,0.0001396999999999,53.2174,21.2802,56.0359,249.115,-0.058437,-0.01072302,0.0,0 STARLINK-4112,1 52861U 22062AH  22247.25001157 -.01072302  00000-0 -58437-1 0  9997,2 52861  53.2174  21.2802 0001397  56.0359 249.1150 15.16653094 12813,6894.101,94.946,516.93,515.003,0.0
52861.0,STARLINK-4112,PAYLOAD,2022-09-04 14:00:01,15.15942382,0.0001441999999999,53.218,19.7684,60.9662,264.7417,-0.063354,-0.01133996,0.0,0 STARLINK-4112,1 52861U 22062AH  22247.58335648 -.01133996  00000-0 -63354-1 0  9999,2 52861  53.2180  19.7684 0001442  60.9662 264.7417 15.15942382  1303,6896.255999999999,94.99,519.115,517.127,0.0
52861.0,STARLINK-4112,PAYLOAD,2022-09-04 16:00:00,15.15729023,0.0001551999999999,53.2179,19.3916,56.0149,4.6334,-0.062222,-0.01108988,0.0,0 STARLINK-4112,1 52861U 22062AH  22247.66667824 -.01108988  00000-0 -62222-1 0  9998,2 52861  53.2179  19.3916 0001552  56.0149   4.6334 15.15729023 12871,6896.903,95.004,519.839,517.698,0.0
52861.0,STARLINK-4112,PAYLOAD,2022-09-04 20:00:01,15.15322755,0.0001491,53.2174,18.6386,60.3724,190.0912,-0.060523,-0.01069325,0.0,0 STARLINK-4112,1 52861U 22062AH  22247.83334491 -.01069325  00000-0 -60523-1 0  9991,2 52861  53.2174  18.6386 0001491  60.3724 190.0912 15.15322755  1307,6898.136,95.029,521.029,518.972,0.0
52861.0,STARLINK-4112,PAYLOAD,2022-09-05 14:00:01,15.13675517,0.0001431,53.218,15.2452,59.8868,321.8417,-0.068709,-0.01151552,0.0,0 STARLINK-4112,1 52861U 22062AH  22248.58334491 -.01151552  00000-0 -68709-1 0  9992,2 52861  53.2180  15.2452 0001431  59.8868 321.8417 15.13675517 13017,6903.14,95.133,525.992,524.0169999999998,0.0
52861.0,STARLINK-4112,PAYLOAD,2022-09-05 22:00:00,15.12858501,0.0001401,53.2172,13.7428,54.4233,344.2063,-0.065372,-0.01076536,0.0,0 STARLINK-4112,1 52861U 22062AH  22248.91667824 -.01076536  00000-0 -65372-1 0  9999,2 52861  53.2172  13.7428 0001401  54.4233 344.2063 15.12858501  1308,6905.625,95.184,528.457,526.5219999999998,0.0
52861.0,STARLINK-4112,PAYLOAD,2022-09-06 06:00:00,15.12095691,0.0001460999999999,53.2173,12.2388,51.4475,3.1426,-0.066472,-0.01071831,0.0,0 STARLINK-4112,1 52861U 22062AH  22249.25001157 -.01071831  00000-0 -66472-1 0  9993,2 52861  53.2173  12.2388 0001461  51.4475   3.1426 15.12095691 13118,6907.946999999999,95.232,530.821,528.803,0.0
52861.0,STARLINK-4112,PAYLOAD,2022-09-06 14:00:01,15.11370697,0.0001465999999999,53.218,10.738,56.307,13.3104,-0.070963,-0.01117535,0.0,0 STARLINK-4112,1 52861U 22062AH  22249.58334491 -.01117535  00000-0 -70963-1 0  9991,2 52861  53.2180  10.7380 0001466  56.3070  13.3104 15.11370697  1306,6910.156,95.278,533.034,531.008,0.0
52861.0,STARLINK-4112,PAYLOAD,2022-09-06 22:00:00,15.10578724,0.000144,53.2172,9.2405,55.54600000000001,28.2207,-0.069525,-0.01074386,0.0,0 STARLINK-4112,1 52861U 22062AH  22249.91667824 -.01074386  00000-0 -69525-1 0  9995,2 52861  53.2172   9.2405 0001440  55.5460  28.2207 15.10578724  1303,6912.571,95.328,535.431,533.44,0.0
52861.0,STARLINK-4112,PAYLOAD,2022-09-07 04:00:00,15.09991007,0.0001351,53.2174,8.1159,49.8232,313.9497,-0.068053,-0.01037421,0.0,0 STARLINK-4112,1 52861U 22062AH  22250.16667824 -.01037421  00000-0 -68053-1 0  9998,2 52861  53.2174   8.1159 0001351  49.8232 313.9497 15.09991007 13256,6914.364000000001,95.365,537.164,535.295,0.0
52861.0,STARLINK-4112,PAYLOAD,2022-09-07 14:00:01,15.09022878,0.000159,53.2174,6.2462,41.9775,67.3321,-0.017768,-0.00273853,0.0,0 STARLINK-4112,1 52861U 22062AH  22250.58334491 -.00273853  00000-0 -17768-1 0  9992,2 52861  53.2174   6.2462 0001590  41.9775  67.3321 15.09022878 13316,6917.321,95.426,540.286,538.087,0.0
52861.0,STARLINK-4112,PAYLOAD,2022-09-07 22:00:00,15.08836822,0.0001434,53.2172,4.7494,66.2125,54.7882,1.4087e-05,-6.4e-07,0.0,0 STARLINK-4112,1 52861U 22062AH  22250.91667824 -.00000064  00000-0  14087-4 0  9993,2 52861  53.2172   4.7494 0001434  66.2125  54.7882 15.08836822  1307,6917.89,95.438,540.747,538.763,0.0
52861.0,STARLINK-4112,PAYLOAD,2022-09-08 06:00:00,15.08839715,0.0001934,53.2186,3.2430000000000003,66.6322,65.8746,0.0025842,0.0004108,0.0,0 STARLINK-4112,1 52861U 22062AH  22251.25001157  .00041080  00000-0  25842-2 0  9993,2 52861  53.2186   3.2430 0001934  66.6322  65.8746 15.08839715 13426,6917.880999999999,95.438,541.0840000000002,538.408,0.0
52861.0,STARLINK-4112,PAYLOAD,2022-09-08 14:00:01,15.08859501,0.0001993,53.2186,1.7484,61.0148,83.1028,-0.0028625,-0.00045582,0.0,0 STARLINK-4112,1 52861U 22062AH  22251.58334491 -.00045582  00000-0 -28625-2 0  9994,2 52861  53.2186   1.7484 0001993  61.0148  83.1028 15.08859501  1303,6917.821,95.436,541.065,538.307,0.0
52861.0,STARLINK-4112,PAYLOAD,2022-09-08 22:00:00,15.08854776,0.0001919,53.2184,0.2516,58.8819,96.8366,-0.00094638,-0.00015325,0.0,0 STARLINK-4112,1 52861U 22062AH  22251.91667824 -.00015325  00000-0 -94638-3 0  9990,2 52861  53.2184   0.2516 0001919  58.8819  96.8366 15.08854776 13520,6917.835,95.437,541.028,538.373,0.0
